NORAD_CAT_ID,OBJECT_NAME,OBJECT_TYPE,EPOCH,MEAN_MOTION,ECCENTRICITY,INCLINATION,RA_OF_ASC_NODE,ARG_OF_PERICENTER,MEAN_ANOMALY,BSTAR,MEAN_MOTION_DOT,MEAN_MOTION_DDOT,TLE_LINE0,TLE_LINE1,TLE_LINE2,SEMIMAJOR_AXIS,PERIOD,APOGEE,PERIGEE,DECAYED
55278.0,STARLINK-5289,PAYLOAD,2024-02-14 11:24:59,14.98328097,0.000294,70.0002,146.0312,270.8621,89.2201,1.7699e-05,1.18e-06,0.0,0 STARLINK-5289,1 55278U 23010K   24045.47568964  .00000118  00000-0  17699-4 0  9993,2 55278  70.0002 146.0312 0002940 270.8621  89.2201 14.98328097 59508,6950.199,96.107,574.107,570.02,0.0
55278.0,STARLINK-5289,PAYLOAD,2024-02-14 14:37:15,14.98332681,0.0002989,69.9998,145.6939,270.1644,89.9172,4.8174e-05,4.82e-06,0.0,0 STARLINK-5289,1 55278U 23010K   24045.60920558  .00000482  00000-0  48174-4 0  9995,2 55278  69.9998 145.6939 0002989 270.1644  89.9172 14.98332681 59823,6950.185,96.107,574.127,569.972,0.0
55278.0,STARLINK-5289,PAYLOAD,2024-02-14 16:13:23,14.98333928,0.0002969,70.0,145.526,270.1385,89.9434,6.9859e-05,7.41e-06,0.0,0 STARLINK-5289,1 55278U 23010K   24045.67596416  .00000741  00000-0  69859-4 0  9995,2 55278  70.0000 145.5260 0002969 270.1385  89.9434 14.98333928 59530,6950.181,96.107,574.109,569.982,0.0
55278.0,STARLINK-5289,PAYLOAD,2024-02-15 11:27:01,14.98320114,0.0002761,70.0007,143.5072,268.6191,91.4651,5.265e-06,-3e-07,0.0,0 STARLINK-5289,1 55278U 23010K   24046.47709621 -.00000030  00000-0  52650-5 0  9992,2 55278  70.0007 143.5072 0002761 268.6191  91.4651 14.98320114 59658,6950.223,96.108,574.007,570.17,0.0
55278.0,STARLINK-5289,PAYLOAD,2024-02-15 14:39:17,14.98322435,0.0002782,70.0008,143.1708,269.3487,90.7353,2.9804e-05,2.63e-06,0.0,0 STARLINK-5289,1 55278U 23010K   24046.61061468  .00000263  00000-0  29804-4 0  9999,2 55278  70.0008 143.1708 0002782 269.3487  90.7353 14.98322435 59974,6950.216,96.107,574.015,570.148,0.0
55278.0,STARLINK-5289,PAYLOAD,2024-02-15 16:15:25,14.98323897,0.0002785,70.0009,143.003,270.196,89.888,4.1675e-05,4.04e-06,0.0,0 STARLINK-5289,1 55278U 23010K   24046.67737371  .00000404  00000-0  41675-4 0  9995,2 55278  70.0009 143.0030 0002785 270.1960  89.8880 14.98323897 59989,6950.212,96.107,574.012,570.141,0.0
55278.0,STARLINK-5289,PAYLOAD,2024-02-16 05:04:29,14.98329835,0.0003045,69.9999,141.6546,270.6628,89.4182,7.0549e-05,7.49e-06,0.0,0 STARLINK-5289,1 55278U 23010K   24047.21144864  .00000749  00000-0  70549-4 0  9999,2 55278  69.9999 141.6546 0003045 270.6628  89.4182 14.98329835 59761,6950.193,96.107,574.175,569.942,0.0
55278.0,STARLINK-5289,PAYLOAD,2024-02-16 14:41:17,14.98338374,0.0003007,70.0,140.6447,269.6134,90.4681,7.9314e-05,8.54e-06,0.0,0 STARLINK-5289,1 55278U 23010K   24047.61200287  .00000854  00000-0  79314-4 0  9991,2 55278  70.0000 140.6447 0003007 269.6134  90.4681 14.98338374 60120,6950.167,96.106,574.122,569.942,0.0
55278.0,STARLINK-5289,PAYLOAD,2024-02-16 16:17:24,14.98340102,0.0003002,70.0001,140.4764,269.8004,90.2811,9.6787e-05,1.062e-05,0.0,0 STARLINK-5289,1 55278U 23010K   24047.67876099  .00001062  00000-0  96787-4 0  9992,2 55278  70.0001 140.4764 0003002 269.8004  90.2811 14.98340102 59835,6950.162,96.106,574.113,569.94,0.0
55278.0,STARLINK-5289,PAYLOAD,2024-02-17 11:31:02,14.98323823,0.0002821,70.0004,138.4595,265.5691,94.5146,-5.6131e-06,-1.6e-06,0.0,0 STARLINK-5289,1 55278U 23010K   24048.47989528 -.00000160  00000-0 -56131-5 0  9993,2 55278  70.0004 138.4595 0002821 265.5691  94.5146 14.98323823 59952,6950.212,96.107,574.038,570.116,0.0
55278.0,STARLINK-5289,PAYLOAD,2024-02-17 14:43:18,14.98338224,0.0002303,70.0013,138.1234,243.8638,116.2284,-0.00028735,-3.52e-05,0.0,0 STARLINK-5289,1 55278U 23010K   24048.61341297 -.00003520  00000-0 -28735-3 0  9994,2 55278  70.0013 138.1234 0002303 243.8638 116.2284 14.98338224 60277,6950.167,96.106,573.633,570.432,0.0
55278.0,STARLINK-5289,PAYLOAD,2024-02-17 16:19:26,14.98327146,0.0002976,69.9998,137.9518,272.3535,87.7284,3.1174e-05,2.79e-06,0.0,0 STARLINK-5289,1 55278U 23010K   24048.68017260  .00000279  00000-0  31174-4 0  9999,2 55278  69.9998 137.9518 0002976 272.3535  87.7284 14.98327146 60281,6950.202,96.107,574.135,569.998,0.0
55278.0,STARLINK-5289,PAYLOAD,2024-02-17 22:43:59,14.98330559,0.0002908,70.0002,137.2786,271.5835,88.4991,8.4239e-06,8e-08,0.0,0 STARLINK-5289,1 55278U 23010K   24048.94721120  .00000008  00000-0  84239-5 0  9996,2 55278  70.0002 137.2786 0002908 271.5835  88.4991 14.98330559 60026,6950.191,96.107,574.077,570.035,0.0
55278.0,STARLINK-5289,PAYLOAD,2024-02-18 13:09:11,14.98336314,0.0002805,70.0001,135.7644,264.0461,96.0379,5.4413e-05,5.56e-06,0.0,0 STARLINK-5289,1 55278U 23010K   24049.54804487  .00000556  00000-0  54413-4 0  9999,2 55278  70.0001 135.7644 0002805 264.0461  96.0379 14.98336314 60412,6950.173,96.107,573.988,570.089,0.0
55278.0,STARLINK-5289,PAYLOAD,2024-02-18 22:45:59,14.98340757,0.0002938,69.9996,134.754,275.3073,84.775,-2.2045e-05,-3.56e-06,0.0,0 STARLINK-5289,1 55278U 23010K   24049.94860207 -.00000356  00000-0 -22045-4 0  9991,2 55278  69.9996 134.7540 0002938 275.3073  84.7750 14.98340757 60476,6950.16,96.106,574.067,569.983,0.0
55278.0,STARLINK-5289,PAYLOAD,2024-02-19 11:35:04,14.98324406,0.0002404,70.0006,133.409,262.6698,97.4188,5.395e-05,5.51e-06,0.0,0 STARLINK-5289,1 55278U 23010K   24050.48269221  .00000551  00000-0  53950-4 0  9995,2 55278  70.0006 133.4090 0002404 262.6698  97.4188 14.98324406 60252,6950.21,96.107,573.746,570.404,0.0
55278.0,STARLINK-5289,PAYLOAD,2024-02-19 14:47:20,14.98324328,0.0002552,70.0001,133.0726,267.9659,92.1208,2.6964e-05,2.29e-06,0.0,0 STARLINK-5289,1 55278U 23010K   24050.61621350  .00000229  00000-0  26964-4 0  9992,2 55278  70.0001 133.0726 0002552 267.9659  92.1208 14.98324328 60571,6950.21,96.107,573.849,570.302,0.0
55278.0,STARLINK-5289,PAYLOAD,2024-02-19 22:48:01,14.98323941,0.000265,70.0002,132.2309,269.9541,90.1314,-1.1306e-05,-2.28e-06,0.0,0 STARLINK-5289,1 55278U 23010K   24050.95001528 -.00000228  00000-0 -11306-4 0  9993,2 55278  70.0002 132.2309 0002650 269.9541  90.1314 14.98323941 60623,6950.212,96.107,573.918,570.235,0.0
55278.0,STARLINK-5289,PAYLOAD,2024-02-20 11:37:05,14.98331507,0.0002762,69.9999,130.8834,271.1459,88.9383,-3.5013e-05,-5.11e-06,0.0,0 STARLINK-5289,1 55278U 23010K   24051.48409077 -.00000511  00000-0 -35013-4 0  9999,2 55278  69.9999 130.8834 0002762 271.1459  88.9383 14.98331507 60403,6950.188,96.107,573.973,570.134,0.0
55278.0,STARLINK-5289,PAYLOAD,2024-02-20 14:49:21,14.9833044,0.0002798,69.9999,130.5467,271.1512,88.9326,-4.3463e-05,-6.12e-06,0.0,0 STARLINK-5289,1 55278U 23010K   24051.61761163 -.00000612  00000-0 -43463-4 0  9991,2 55278  69.9999 130.5467 0002798 271.1512  88.9326 14.98330440 60728,6950.192,96.107,574.001,570.112,0.0
55278.0,STARLINK-5289,PAYLOAD,2024-02-21 11:39:05,14.98329022,0.0002978,69.9996,128.3576,272.1833,87.8985,0.00019856,2.277e-05,0.0,0 STARLINK-5289,1 55278U 23010K   24052.48548496  .00002277  00000-0  19856-3 0  9994,2 55278  69.9996 128.3576 0002978 272.1833  87.8985 14.98329022 60552,6950.196,96.107,574.131,569.991,0.0
55278.0,STARLINK-5289,PAYLOAD,2024-02-21 13:15:13,14.9833388,0.000282,69.9996,128.1895,269.4452,90.6384,0.00011321,1.258e-05,0.0,0 STARLINK-5289,1 55278U 23010K   24052.55224383  .00001258  00000-0  11321-3 0  9995,2 55278  69.9996 128.1895 0002820 269.4452  90.6384 14.98333880 60862,6950.181,96.107,574.006,570.086,0.0
55278.0,STARLINK-5289,PAYLOAD,2024-02-21 14:51:21,14.98336525,0.0002898,69.9994,128.0208,271.4737,88.609,0.0001241,1.388e-05,0.0,0 STARLINK-5289,1 55278U 23010K   24052.61900211  .00001388  00000-0  12410-3 0  9997,2 55278  69.9994 128.0208 0002898 271.4737  88.6090 14.98336525 60872,6950.173,96.107,574.052,570.024,0.0
55278.0,STARLINK-5289,PAYLOAD,2024-02-22 11:41:06,14.98329609,0.0002463,70.0014,125.8339,267.2264,92.8613,0.00020545,2.359e-05,0.0,0 STARLINK-5289,1 55278U 23010K   24053.48688474  .00002359  00000-0  20545-3 0  9994,2 55278  70.0014 125.8339 0002463 267.2264  92.8613 14.98329609 60709,6950.194,96.107,573.771,570.347,0.0
55278.0,STARLINK-5289,PAYLOAD,2024-02-22 14:53:23,14.98330914,0.0002874,69.9995,125.4964,268.9281,91.1549,6.616e-05,6.97e-06,0.0,0 STARLINK-5289,1 55278U 23010K   24053.62040721  .00000697  00000-0  66160-4 0  9994,2 55278  69.9995 125.4964 0002874 268.9281  91.1549 14.98330914 61024,6950.19,96.107,574.053,570.058,0.0
55278.0,STARLINK-5289,PAYLOAD,2024-02-23 03:42:27,14.98378642,0.000247,69.9996,124.1498,265.4825,94.6052,-0.00075838,-9.141e-05,0.0,0 STARLINK-5289,1 55278U 23010K   24054.15448520 -.00009141  00000-0 -75838-3 0  9998,2 55278  69.9996 124.1498 0002470 265.4825  94.6052 14.98378642 60803,6950.042,96.104,573.624,570.191,0.0
55278.0,STARLINK-5289,PAYLOAD,2024-02-23 13:19:15,14.98339934,0.0002822,69.9998,123.1404,272.1834,87.9002,4.8612e-05,4.87e-06,0.0,0 STARLINK-5289,1 55278U 23010K   24054.55503871  .00000487  00000-0  48612-4 0  9996,2 55278  69.9998 123.1404 0002822 272.1834  87.9002 14.98339934 61168,6950.162,96.106,573.989,570.066,0.0
55278.0,STARLINK-5289,PAYLOAD,2024-02-23 21:19:55,14.98339398,0.0002747,69.9997,122.2984,270.2934,89.791,-0.00010241,-1.315e-05,0.0,0 STARLINK-5289,1 55278U 23010K   24054.88884119 -.00001315  00000-0 -10241-3 0  9998,2 55278  69.9997 122.2984 0002747 270.2934  89.7910 14.98339398 60910,6950.164,96.106,573.938,570.12,0.0
55278.0,STARLINK-5289,PAYLOAD,2024-02-24 03:44:28,14.98328055,0.0002723,69.9998,121.6267,264.848,95.2369,-2.9992e-06,-1.29e-06,0.0,0 STARLINK-5289,1 55278U 23010K   24055.15588566 -.00000129  00000-0 -29992-5 0  9993,2 55278  69.9998 121.6267 0002723 264.8480  95.2369 14.98328055 60959,6950.199,96.107,573.956,570.171,0.0
55278.0,STARLINK-5289,PAYLOAD,2024-02-24 13:21:17,14.9832542,0.0002745,69.9996,120.6162,267.5766,92.5078,-3.181e-05,-4.72e-06,0.0,0 STARLINK-5289,1 55278U 23010K   24055.55644911 -.00000472  00000-0 -31810-4 0  9996,2 55278  69.9996 120.6162 0002745 267.5766  92.5078 14.98325420 61312,6950.207,96.107,573.98,570.164,0.0
